SHIYAN-28B 01           
1 64753U 25145A   25201.83683691  .00000587  00000+0  60282-4 0  9997
2 64753  11.0002 325.7406 0003416 264.8965  95.0872 14.29199309  2439
CZ-4C R/B               
1 64754U 25145B   25201.57955477  .00000978  00000+0  85136-4 0  9992
2 64754  10.9868 322.3184 0122268 224.3226 134.7155 14.56356941  2399
STARLINK-33965          
1 64755U 25147A   25201.83335648 -.00180971  00000+0 -12543-2 0  9990
2 64755  53.1592 245.7168 0000757  99.5269  99.5127 15.74258310  3200
STARLINK-34371          
1 64756U 25147B   25201.58335648 -.00078374  00000+0 -53442-3 0  9990
2 64756  53.1590 246.9554 0000565  50.7788 172.5660 15.74250060  3076
STARLINK-34401          
1 64757U 25147C   25201.83335648 -.00208906  00000+0 -14519-2 0  9996
2 64757  53.1591 245.7093 0001084 107.0443  95.8241 15.74280432  3050
STARLINK-34593          
1 64758U 25147D   25201.83335648 -.00060274  00000+0 -40979-3 0  9991
2 64758  53.1591 245.7048 0001151  87.2395 117.5545 15.74211434  3168
STARLINK-34598          
1 64759U 25147E   25201.83335648 -.00068481  00000+0 -46667-3 0  9990
2 64759  53.1592 245.7010 0001079  84.0567 122.6697 15.74209388  3119
STARLINK-34235          
1 64760U 25147F   25201.83335648 -.00046827  00000+0 -31721-3 0  9997
2 64760  53.1591 245.6968 0000954  82.6363 126.0142 15.74188980  3207
STARLINK-34635          
1 64761U 25147G   25201.83335648 -.00047791  00000+0 -32362-3 0  9991
2 64761  53.1591 245.6928 0001139 102.6461 107.9033 15.74206168  3163
STARLINK-34638          
1 64762U 25147H   25201.60543667  .00076952  00000+0  52463-3 0  9992
2 64762  53.1583 246.8197 0001054  94.2983 265.8157 15.74202287  3133
STARLINK-34534          
1 64763U 25147J   25201.83335648 -.00030061  00000+0 -20169-3 0  9997
2 64763  53.1590 245.6846 0001081  68.7301 145.6573 15.74188737  3163
STARLINK-34261          
1 64764U 25147K   25201.83335648 -.00002058  00000+0 -97647-5 0  9990
2 64764  53.1591 245.6808 0001098  73.4195 142.8881 15.74172608  3201
STARLINK-34566          
1 64765U 25147L   25201.83335648 -.00049864  00000+0 -33796-3 0  9990
2 64765  53.1591 245.6768 0001068  97.8872 120.3337 15.74204237  3162
STARLINK-34645          
1 64766U 25147M   25201.83335648 -.00029598  00000+0 -19846-3 0  9993
2 64766  53.1591 245.6728 0000983  99.1869 120.9508 15.74194507  3169
STARLINK-34639          
1 64767U 25147N   25201.83335648 -.00036437  00000+0 -24560-3 0  9993
2 64767  53.1591 245.6688 0001078  85.7764 136.2878 15.74185788  3112
STARLINK-34609          
1 64768U 25147P   25201.58335648  .00060893  00000+0  41837-3 0  9993
2 64768  53.1587 246.9073 0001454  75.2011 171.1751 15.74116038  3151
STARLINK-34246          
1 64769U 25147Q   25201.83335648 -.00049497  00000+0 -33543-3 0  9996
2 64769  53.1589 245.6612 0001039  82.3069 143.5774 15.74204139  3169
STARLINK-34618          
1 64770U 25147R   25201.83335648 -.00047250  00000+0 -32003-3 0  9993
2 64770  53.1589 245.6570 0000847  85.1582 142.6475 15.74196860  3058
STARLINK-34541          
1 64771U 25147S   25201.83335648 -.00075161  00000+0 -51276-3 0  9999
2 64771  53.1588 245.6526 0000941  96.5248 133.1911 15.74221573  3048
STARLINK-34652          
1 64772U 25147T   25201.85601509  .00251877  00000+0  16690-2 0  9992
2 64772  53.1584 245.5359 0001523  79.6747 280.4444 15.74246994  3176
STARLINK-34612          
1 64773U 25147U   25201.85567586  .00228770  00000+0  15208-2 0  9999
2 64773  53.1585 245.5339 0001640  74.3103 285.8098 15.74241939  3172
STARLINK-34621          
1 64774U 25147V   25201.58335648  .00010998  00000+0  79324-4 0  9994
2 64774  53.1588 246.8824 0001339  56.7871 201.1087 15.74179186  3049
STARLINK-34657          
1 64775U 25147W   25201.58335648  .00051453  00000+0  35411-3 0  9994
2 64775  53.1585 246.8783 0000896  75.6418 184.1927 15.74146909  3157
STARLINK-34637          
1 64776U 25147X   25201.85466437  .00244374  00000+0  16214-2 0  9991
2 64776  53.1583 245.5265 0001809  79.5625 280.5599 15.74239218  3067
STARLINK-34547          
1 64777U 25147Y   25201.85432185  .00218353  00000+0  14538-2 0  9990
2 64777  53.1583 245.5243 0000822  81.5355 278.5758 15.74237844  3125
STARLINK-34537          
1 64778U 25147Z   25201.83330549  .00272427  00000+0  16028-2 0  9998
2 64778  53.1557 245.3824 0001476  59.6703 300.4464 15.76910532  3212
STARLINK-34585          
1 64779U 25147AA  25201.58335648  .00027721  00000+0  19320-3 0  9990
2 64779  53.1584 246.8623 0000977  76.3871 191.1088 15.74158318  3102
STARLINK-34491          
1 64780U 25147AB  25201.85331214  .00228625  00000+0  15202-2 0  9997
2 64780  53.1582 245.5178 0001836  71.5265 288.5954 15.74236717  3172
STARLINK-34582          
1 64781U 25147AC  25201.85297158  .00197334  00000+0  13181-2 0  9992
2 64781  53.1581 245.5152 0001448  87.3781 272.7405 15.74228568  3060
STARLINK-34482          
1 64782U 25147AD  25201.85263706  .00229542  00000+0  15256-2 0  9997
2 64782  53.1583 245.5128 0002457  69.4742 290.6541 15.74243778  3212
CZ-4C DEB               
1 64783U 25145C   25201.56659810  .00068804  00000+0  28688-1 0  9993
2 64783  10.9721 328.5673 0036531   9.0199 351.0681 14.24212249  1668
DROR 1                  
1 64784U 25148A   25197.13967436  .00000034  00000+0  18632-3 0  9991
2 64784  23.8557 198.9333 8224026 181.0806 173.7716  1.19604520    50
TIANZHOU-9              
1 64786U 25149A   25200.77019891  .00007094  00000+0  12748-2 0  9996
2 64786  98.7691 214.2180 0025229 255.6515 104.1886 14.66794290241025
CZ-7 R/B                
1 64787U 25149B   25200.32266932  .00848252  74809-5  57242-3 0  9990
2 64787  41.4691 183.8981 0090480 206.2842 295.0938 16.06973910   718
CZ-7 DEB                
1 64788U 25149C   25199.02818894  .07069983  72772-5  27876-2 0  9994
2 64788  41.6244 192.8415 0115111 203.3467 156.2138 16.08501629   498
2025-135BT              
1 64840U 25135BT  25198.46759382  .00001622  00000+0  16377-3 0  9994
2 64840  97.7473 312.4875 0006045  26.3833 333.7693 14.92433292  3951
2025-135BU              
1 64841U 25135BU  25198.27366605  .00005725  00000+0  56186-3 0  9996
2 64841  97.7494 312.2800 0007049 255.7689 104.2747 14.92563389  3922
